QIANFAN-65              
1 62795U 25016L   25343.10138792  .00000181  00000+0  26222-3 0  9997
2 62795  88.9760 103.4346 0013397   0.5558 359.5606 13.50982927 46758
QIANFAN-66              
1 62796U 25016M   25343.13014981  .00000174  00000+0  25131-3 0  9994
2 62796  88.9779 103.4011 0014371 355.3268   4.7746 13.50975670 46807
QIANFAN-67              
1 62797U 25016N   25343.13441434  .00000168  00000+0  24234-3 0  9998
2 62797  88.9769 103.4266 0014538   2.4781 357.6439 13.50979839 46770
QIANFAN-68              
1 62798U 25016P   25343.12611541  .00000173  00000+0  24918-3 0  9991
2 62798  88.9773 103.4725 0014542   0.6377 359.4790 13.50982240 46750
QIANFAN-69              
1 62799U 25016Q   25343.14261704  .00000187  00000+0  27085-3 0  9999
2 62799  88.9752 103.3410 0015320   1.4558 358.6635 13.50985115 46790
QIANFAN-70              
1 62800U 25016R   25343.08495167  .00000185  00000+0  26843-3 0  9996
2 62800  88.9772 103.4846 0014670 351.7714   8.3194 13.50975956 46747
QIANFAN-71              
1 62801U 25016S   25343.15487488  .00000177  00000+0  25561-3 0  9999
2 62801  88.9766 103.4571 0015345   5.0650 355.0653 13.50983079 46752
QIANFAN-72              
1 62802U 25016T   25343.17134852  .00000181  00000+0  26171-3 0  9999
2 62802  88.9757 103.4691 0018802  11.2433 348.9134 13.50983068 46747
